{
  "tilejson": "2.0.0",
  "name": "maplibre",
  "attribution": "<a href=\"https://www.maptiler.com/copyright/\" target=\"_blank\">&copy; MapTiler</a> <a href=\"https://www.openstreetmap.org/copyright\" target=\"_blank\">&copy; OpenStreetMap contributors</a>",
  "type": "baselayer",
  "scale": "1.000000",
  "bounds": [
    -180,
    -85.051129,
    180,
    85.05112900000002
  ],
  "format": "pbf",
  "legend": "",
  "maxzoom": 14,
  "minzoom": 0,
  "profile": "mercator",
  "version": "1",
  "vector_layers":  [{"maxzoom":14,"fields":{"class":"String"},"minzoom":0,"id":"water","description":""},{"maxzoom":14,"fields":{"name:mt":"String","name:pt":"String","name:az":"String","name:ka":"String","name:rm":"String","name:ko":"String","name:kn":"String","name:ar":"String","name:cs":"String","name_de":"String","name:ro":"String","name:it":"String","name_int":"String","name:ru":"String","name:pl":"String","name:ca":"String","name:lv":"String","name:bg":"String","name:cy":"String","name:fi":"String","name:he":"String","name:da":"String","name:de":"String","name:tr":"String","name:fr":"String","name:mk":"String","name:nonlatin":"String","name:fy":"String","name:be":"String","name:zh":"String","name:sr":"String","name:sl":"String","name:nl":"String","name:ja":"String","name:lt":"String","name:no":"String","name:kk":"String","name:ko_rm":"String","name:ja_rm":"String","name:br":"String","name:bs":"String","name:lb":"String","name:la":"String","name:sk":"String","name:uk":"String","name:hy":"String","name:sv":"String","name_en":"String","name:hu":"String","name:hr":"String","class":"String","name:sq":"String","name:el":"String","name:ga":"String","name:en":"String","name":"String","name:gd":"String","name:ja_kana":"String","name:is":"String","name:th":"String","name:latin":"String","name:sr-Latn":"String","name:et":"String","name:es":"String"},"minzoom":0,"id":"waterway","description":""},{"maxzoom":14,"fields":{"class":"String","subclass":"String"},"minzoom":0,"id":"landcover","description":""},{"maxzoom":14,"fields":{"class":"String"},"minzoom":0,"id":"landuse","description":""},{"maxzoom":14,"fields":{"name:mt":"String","name:pt":"String","name:az":"String","name:ka":"String","name:rm":"String","name:ko":"String","name:kn":"String","name:ar":"String","name:cs":"String","rank":"Number","name_de":"String","name:ro":"String","name:it":"String","name_int":"String","name:lv":"String","name:pl":"String","name:de":"String","name:ca":"String","name:bg":"String","name:cy":"String","name:fi":"String","name:he":"String","name:da":"String","ele":"Number","name:tr":"String","name:fr":"String","name:mk":"String","name:nonlatin":"String","name:fy":"String","name:be":"String","name:zh":"String","name:sl":"String","name:nl":"String","name:ja":"String","name:lt":"String","name:no":"String","name:kk":"String","name:ko_rm":"String","name:ja_rm":"String","name:br":"String","name:bs":"String","name:lb":"String","name:la":"String","name:sk":"String","name:uk":"String","name:hy":"String","name:ru":"String","name:sv":"String","name_en":"String","name:hu":"String","name:hr":"String","name:sr":"String","name:sq":"String","name:el":"String","name:ga":"String","name:en":"String","name":"String","name:gd":"String","ele_ft":"Number","name:ja_kana":"String","name:is":"String","osm_id":"Number","name:th":"String","name:latin":"String","name:sr-Latn":"String","name:et":"String","name:es":"String"},"minzoom":0,"id":"mountain_peak","description":""},{"maxzoom":14,"fields":{"class":"String"},"minzoom":0,"id":"park","description":""},{"maxzoom":14,"fields":{"admin_level":"Number","disputed":"Number","maritime":"Number"},"minzoom":0,"id":"boundary","description":""},{"maxzoom":14,"fields":{"class":"String"},"minzoom":0,"id":"aeroway","description":""},{"maxzoom":14,"fields":{"brunnel":"String","ramp":"Number","class":"String","service":"String","oneway":"Number"},"minzoom":0,"id":"transportation","description":""},{"maxzoom":14,"fields":{"render_min_height":"Number","render_height":"Number"},"minzoom":0,"id":"building","description":""},{"maxzoom":14,"fields":{"name:mt":"String","name:pt":"String","name:az":"String","name:ka":"String","name:rm":"String","name:ko":"String","name:kn":"String","name:ar":"String","name:cs":"String","name_de":"String","name:ro":"String","name:it":"String","name_int":"String","name:ru":"String","name:pl":"String","name:ca":"String","name:lv":"String","name:bg":"String","name:cy":"String","name:fi":"String","name:he":"String","name:da":"String","name:de":"String","name:tr":"String","name:fr":"String","name:mk":"String","name:nonlatin":"String","name:fy":"String","name:be":"String","name:zh":"String","name:sr":"String","name:sl":"String","name:nl":"String","name:ja":"String","name:lt":"String","name:no":"String","name:kk":"String","name:ko_rm":"String","name:ja_rm":"String","name:br":"String","name:bs":"String","name:lb":"String","name:la":"String","name:sk":"String","name:uk":"String","name:hy":"String","name:sv":"String","name_en":"String","name:hu":"String","name:hr":"String","class":"String","name:sq":"String","name:el":"String","name:ga":"String","name:en":"String","name":"String","name:gd":"String","name:ja_kana":"String","name:is":"String","name:th":"String","name:latin":"String","name:sr-Latn":"String","name:et":"String","name:es":"String"},"minzoom":0,"id":"water_name","description":""},{"maxzoom":14,"fields":{"name:mt":"String","name:pt":"String","name:az":"String","name:ka":"String","name:rm":"String","name:ko":"String","name:kn":"String","name:ar":"String","name:cs":"String","name_de":"String","name:ro":"String","name:it":"String","name_int":"String","name:ru":"String","name:pl":"String","name:ca":"String","name:lv":"String","name:bg":"String","name:cy":"String","name:fi":"String","name:he":"String","name:da":"String","name:de":"String","name:tr":"String","name:fr":"String","name:mk":"String","name:nonlatin":"String","name:fy":"String","name:be":"String","name:zh":"String","name:sr":"String","name:sl":"String","name:nl":"String","name:ja":"String","name:lt":"String","name:no":"String","name:kk":"String","name:ko_rm":"String","name:ja_rm":"String","name:br":"String","name:bs":"String","name:lb":"String","name:la":"String","name:sk":"String","name:uk":"String","name:hy":"String","name:sv":"String","name_en":"String","name:hu":"String","name:hr":"String","class":"String","name:sq":"String","network":"String","name:el":"String","name:ga":"String","name:en":"String","name":"String","name:gd":"String","ref":"String","name:ja_kana":"String","ref_length":"Number","name:is":"String","name:th":"String","name:latin":"String","name:sr-Latn":"String","name:et":"String","name:es":"String"},"minzoom":0,"id":"transportation_name","description":""},{"maxzoom":14,"fields":{"name:mt":"String","name:pt":"String","name:az":"String","name:ka":"String","name:rm":"String","name:ko":"String","name:kn":"String","name:ar":"String","name:cs":"String","rank":"Number","name_de":"String","name:ro":"String","name:it":"String","name_int":"String","name:ru":"String","name:pl":"String","name:ca":"String","name:lv":"String","name:bg":"String","name:cy":"String","name:hr":"String","name:fi":"String","name:he":"String","name:da":"String","name:de":"String","name:tr":"String","name:fr":"String","name:mk":"String","name:nonlatin":"String","name:fy":"String","name:be":"String","name:zh":"String","name:sr":"String","name:sl":"String","name:nl":"String","name:ja":"String","name:ko_rm":"String","name:no":"String","name:kk":"String","capital":"Number","name:ja_rm":"String","name:br":"String","name:bs":"String","name:lb":"String","name:la":"String","name:sk":"String","name:uk":"String","name:hy":"String","name:sv":"String","name_en":"String","name:hu":"String","name:lt":"String","class":"String","name:sq":"String","name:el":"String","name:ga":"String","name:en":"String","name":"String","name:gd":"String","name:ja_kana":"String","name:is":"String","name:th":"String","name:latin":"String","name:sr-Latn":"String","name:et":"String","name:es":"String"},"minzoom":0,"id":"place","description":""},{"maxzoom":14,"fields":{"housenumber":"String"},"minzoom":0,"id":"housenumber","description":""},{"maxzoom":14,"fields":{"name:mt":"String","name:pt":"String","name:az":"String","name:ka":"String","name:rm":"String","name:ko":"String","name:kn":"String","name:ar":"String","name:cs":"String","rank":"Number","name_de":"String","name:ro":"String","name:it":"String","name_int":"String","name:ru":"String","name:pl":"String","name:ca":"String","name:lv":"String","name:bg":"String","name:cy":"String","name:fi":"String","name:he":"String","name:da":"String","subclass":"String","name:de":"String","name:tr":"String","name:fr":"String","name:mk":"String","name:nonlatin":"String","name:fy":"String","name:be":"String","name:zh":"String","name:sr":"String","name:sl":"String","name:nl":"String","name:ja":"String","name:lt":"String","name:no":"String","name:kk":"String","name:ko_rm":"String","name:ja_rm":"String","name:br":"String","name:bs":"String","name:lb":"String","name:la":"String","name:sk":"String","name:uk":"String","name:hy":"String","name:sv":"String","name_en":"String","name:hu":"String","name:hr":"String","class":"String","name:sq":"String","name:el":"String","name:ga":"String","name:en":"String","name":"String","name:gd":"String","name:ja_kana":"String","name:is":"String","name:th":"String","name:latin":"String","name:sr-Latn":"String","name:et":"String","name:es":"String"},"minzoom":0,"id":"poi","description":""}],
  "crs": "EPSG:3857",
  "crs_wkt": "PROJCS[\"WGS 84 / Pseudo-Mercator\",GEOGCS[\"WGS 84\",DATUM[\"WGS_1984\",SPHEROID[\"WGS 84\",6378137,298.257223563,AUTHORITY[\"EPSG\",\"7030\"]],AUTHORITY[\"EPSG\",\"6326\"]],PRIMEM[\"Greenwich\",0,AUTHORITY[\"EPSG\",\"8901\"]],UNIT[\"degree\",0.0174532925199433,AUTHORITY[\"EPSG\",\"9122\"]],AUTHORITY[\"EPSG\",\"4326\"]],PROJECTION[\"Mercator_1SP\"],PARAMETER[\"central_meridian\",0],PARAMETER[\"scale_factor\",1],PARAMETER[\"false_easting\",0],PARAMETER[\"false_northing\",0],UNIT[\"metre\",1,AUTHORITY[\"EPSG\",\"9001\"]],AXIS[\"X\",EAST],AXIS[\"Y\",NORTH],EXTENSION[\"PROJ4\",\"+proj=merc +a=6378137 +b=6378137 +lat_ts=0.0 +lon_0=0.0 +x_0=0.0 +y_0=0 +k=1.0 +units=m +nadgrids=@null +wktext +no_defs\"],AUTHORITY[\"EPSG\",\"3857\"]]",
  "extent": [
    -20037508.342789244,
    -20037508.6269291,
    20037508.342789244,
    20037508.626929108
  ],
  "center": [
    0,
    2.5444437451708134e-14,
    1
  ],
  "tiles": ["comt://https://comtiles.s3.eu-central-1.amazonaws.com/planet-new.comt?response-content-disposition=inline&X-Amz-Security-Token=IQoJb3JpZ2luX2VjEF8aDGV1LWNlbnRyYWwtMSJIMEYCIQCwxBDoCGcdZEaWx0QtvPQloEMguKYATMqkixFSMdPusAIhAL4n%2B1rKGc1J3eHb%2FvHOvNDDwYY0YY81We3Zrd8fgfcaKu0CCNj%2F%2F%2F%2F%2F%2F%2F%2F%2F%2FwEQAxoMNDAwMjU3MzUzMDkxIgyZlLjYry4zqVY6dnoqwQK%2BxIxcHZB%2FvF3VVL2I2751DAV3w64yOuASMYXTKRQZrx0RJn0YX%2BU6TH7i%2BTFYslZs8WvKG9IX14YqX0hbDXI9hk%2Bthd%2FhKzTeJfuCQOQuqJzNC6OuZ8FRp5O8q2D8%2Fcawl2j2jnuHTTdAmyArmToiyxz4x%2F8F1PTOunWNRgxbJEMkKSos%2FrWzhOT2OqZN4fj3nD2550wL6diPxBVXGgyvHHuXthQMLt2wJiKq9yCjFdNCJwTNQRSRC01WXVztyFEj9ecq7Pthy6GsASq7W3GWNWWQCj%2FNvFQsSA8bUBZxCWxIQEj6%2FcbAdP5gMLFNmJvYI4JqrlEZQV8eH48DMGEgO7EnqMO8oWOdfVeWGTv%2BLnXuFil7yOzSEL4z2a3Mw4Ou0YawIWiVEZ3VTbnPJkbfo4NsdHKCL2tVDSGzLdFF5IEw99XXkQY6sgI8w6RL%2Fp0%2Fj6VescEfMPLnI5s46mW%2FskMXcY1OtEdwwtxQidgJSh3AamoSEsK4JE4jqtF6WkKBUFtG4AI0i4MxrNQHcEcy3evHr5f9%2FE1uQIYedfmcDzP1SoRDoCrZ9dtSGO%2BOB2jRIf3rKaZP2qUZ8tQFDznk2eRTuV%2B9F4vqN1bOzHmUgm4gjCdsZBk%2BCgbc0lwQcrw70VHyL8Xb%2BHpAeEIZse%2FA49R47SKVVRMtJMl9QfMreN6kMdWNofnK3C3bF7j6RW4TSMVE9StNdR0gcGV9u7NFMOVi9p0dudyOhJTPsGUC1JTxxkRIdI7cPsEFJhYdQGssyPCh1Y14uzuMJfqfu%2BmyxilM9Wj%2FFb7mPJaZ2Ixh0nN30eiHgDbR7JZpKzlvdXZ%2BxXzIADnnzEpLkAg%3D&X-Amz-Algorithm=AWS4-HMAC-SHA256&X-Amz-Date=20220319T181103Z&X-Amz-SignedHeaders=host&X-Amz-Expires=1800&X-Amz-Credential=ASIAV2MJSQWB5Z5SEHG3%2F20220319%2Feu-central-1%2Fs3%2Faws4_request&X-Amz-Signature=f4927ab64816b78011fd371f8c3aec9e121b37708a6bdd047c3f22b292775e43/{z}/{x}/{y}"]
}